STARLINK-31131          
1 58673U 23211G   24037.25001157 -.00780541  00000+0 -14875-1 0  9997
2 58673  42.9999  56.8066 0001343 288.3560  79.6901 15.49795742  7290
STARLINK-31124          
1 58674U 23211H   24036.95464200 -.00007906  00000+0 -29291-3 0  9993
2 58674  43.0019  65.9793 0001048 256.4703 103.6032 15.25887279  5899
STARLINK-31126          
1 58675U 23211J   24037.42414711  .00001593  00000+0  70723-4 0  9990
2 58675  43.0019  63.4760 0001254 295.3375  64.7346 15.25908264  7135
STARLINK-31066          
1 58676U 23211K   24037.40590792  .00006133  00000+0  24401-3 0  9999
2 58676  43.0013  62.4551 0001573 287.1688  72.8991 15.25922962  7257
STARLINK-31058          
1 58677U 23211L   24037.08328402  .00001552  00000+0  69165-4 0  9998
2 58677  43.0035  65.2228 0001282 253.9175 106.1535 15.25913794  7093
STARLINK-31125          
1 58678U 23211M   24037.11255442  .00000288  00000+0  20846-4 0  9994
2 58678  42.9990  64.5744 0000952 272.7833  87.2909 15.25912782  7090
STARLINK-31110          
1 58679U 23211N   24037.46925968  .00000891  00000+0  43925-4 0  9993
2 58679  43.0035  62.9597 0001324 255.5289 104.5415 15.25898832  7240
STARLINK-31112          
1 58680U 23211P   24037.46473703 -.00001320  00000+0 -40609-4 0  9996
2 58680  43.0023  62.9223 0001549 276.8054  83.2621 15.25910098  7151
STARLINK-31147          
1 58681U 23211Q   24037.27062051  .00000265  00000+0  19989-4 0  9998
2 58681  43.0029  64.0481 0001465 248.0918 111.9778 15.25902863  7214
STARLINK-31144          
1 58682U 23211R   24036.52117444  .00000101  00000+0  13695-4 0  9990
2 58682  42.9994  67.8753 0001069 276.1790  83.8939 15.25905204  7114
STARLINK-31095          
1 58683U 23211S   24036.47833739 -.00001028  00000+0 -29473-4 0  9999
2 58683  43.0025  68.4201 0000976 263.9652  96.1088 15.25911463  7097
STARLINK-31107          
1 58684U 23211T   24036.46928835  .00000858  00000+0  42628-4 0  9996
2 58684  43.0003  68.3479 0001146 292.6831  67.3898 15.25906986  5820
STARLINK-31121          
1 58685U 23211U   24037.24799706  .00000632  00000+0  34005-4 0  9997
2 58685  42.9993  63.8692 0000890 258.3059 101.7692 15.25907311  7112
STARLINK-31137          
1 58686U 23211V   24036.51891147  .00000982  00000+0  47359-4 0  9993
2 58686  42.9991  67.8584 0001063 277.2086  82.8644 15.25908057  7101
STARLINK-31109          
1 58687U 23211W   24036.77161746  .00109670  00000+0  11447-2 0  9998
2 58687  43.0007  61.9396 0001519 183.1044 176.9811 15.63417440  5925
STARLINK-31139          
1 58688U 23211X   24036.79431346  .00000682  00000+0  35895-4 0  9995
2 58688  43.0023  66.4871 0001135 269.8952  90.1769 15.25910222  5873
STARLINK-31106          
1 58689U 23211Y   24036.47381024  .00001091  00000+0  51527-4 0  9993
2 58689  43.0026  68.3841 0001181 265.6631  94.4085 15.25908627  5823
STARLINK-11072          
1 58705U 24002A   24037.11103467  .00006583  00000+0  59161-4 0  9999
2 58705  53.1608  80.7571 0001426  91.5149 268.6032 15.69707033  6510
STARLINK-11075          
1 58706U 24002B   24037.36344537  .00004972  00000+0  45850-4 0  9992
2 58706  53.1603  79.4800 0001263  93.0550 267.0613 15.69722302  6556
STARLINK-11077          
1 58707U 24002C   24037.10414260  .00003325  00000+0  32298-4 0  9999
2 58707  53.1574  80.6987 0001233  59.8410 300.2730 15.69703829  6515
STARLINK-11079          
1 58708U 24002D   24037.48117225  .00019984  00000+0  16917-3 0  9999
2 58708  53.1581  78.7878 0001708  86.5634 273.5579 15.69744049  6571
STARLINK-11076          
1 58709U 24002E   24037.39283360  .00041754  00000+0  34767-3 0  9997
2 58709  53.1590  78.9480 0001991 107.4185 252.7051 15.69715303  6453
STARLINK-11078          
1 58710U 24002F   24037.39509144  .00010623  00000+0  92391-4 0  9999
2 58710  53.1587  78.9627 0001779 106.1151 254.0063 15.69720170  6565
STARLINK-31031          
1 58711U 24002G   24037.36750201  .00045288  00000+0  16356-2 0  9999
2 58711  53.1583  85.9877 0002027 105.1872 254.9352 15.28062103  6361
STARLINK-31029          
1 58712U 24002H   24037.40024770  .00033000  00000+0  11980-2 0  9997
2 58712  53.1618  86.1948 0002077  88.7874 271.3364 15.28040680  6368
STARLINK-30973          
1 58713U 24002J   24037.39991463  .00016408  00000+0  60339-3 0  9994
2 58713  53.1610  86.1812 0002353 108.0596 252.0660 15.28037214  6482
STARLINK-31100          
1 58714U 24002K   24037.39557239  .00032770  00000+0  11897-2 0  9998
2 58714  53.1609  86.1550 0003016  94.4288 265.7056 15.28040510  6521
STARLINK-31102          
1 58715U 24002L   24037.39523846  .00034770  00000+0  12603-2 0  9994
2 58715  53.1610  86.1526 0002406  96.4717 263.6557 15.28065223  6417
STARLINK-31098          
1 58716U 24002M   24037.39089568  .00026212  00000+0  95498-3 0  9999
2 58716  53.1613  86.1269 0001751  89.9171 270.2030 15.28042311  6477
STARLINK-31093          
1 58717U 24002N   24037.43724713  .00013676  00000+0  50515-3 0  9994
2 58717  53.1625  85.7048 0001984  98.7822 261.3402 15.28043106  6376
STARLINK-31097          
1 58718U 24002P   24037.45162442  .00021011  00000+0  76873-3 0  9999
2 58718  53.1596  85.7946 0001942  97.7132 262.4088 15.28033940  6498
STARLINK-31051          
1 58719U 24002Q   24037.45128174  .00026960  00000+0  98152-3 0  9996
2 58719  53.1612  85.7925 0002212  86.3776 273.7476 15.28051041  6379
STARLINK-31027          
1 58720U 24002R   24037.44695116  .00051463  00000+0  18545-2 0  9995
2 58720  53.1607  85.7691 0002467  74.1897 285.9375 15.28076218  6372
STARLINK-30972          
1 58721U 24002S   24037.44661336  .00035392  00000+0  12831-2 0  9998
2 58721  53.1612  85.7638 0002771  67.1654 292.9638 15.28049338  6497
STARLINK-31040          
1 58722U 24002T   24037.44226890  .00046181  00000+0  16675-2 0  9999
2 58722  53.1605  85.7385 0002223  84.7422 275.3832 15.28059746  6494
STARLINK-31033          
1 58723U 24002U   24037.36716335  .00037698  00000+0  13652-2 0  9994
2 58723  53.1580  85.9768 0001965 109.4576 250.6636 15.28057168  6350
STARLINK-30893          
1 58724U 24002V   24037.44192982  .00008513  00000+0  31955-3 0  9991
2 58724  53.1603  85.7479 0001682 101.2419 258.8770 15.28031261  6373
STARLINK-30856          
1 58725U 24002W   24037.43759227  .00048119  00000+0  17361-2 0  9992
2 58725  53.1593  85.7141 0002552  70.9334 289.1942 15.28066758  6370
STARLINK-31155          
1 58728U 24005A   24037.58335648  .00079950  00000+0  31955-2 0  9993
2 58728  43.0001  45.9838 0001178 262.2485  58.1355 15.24171069  5742
STARLINK-31115          
1 58729U 24005B   24037.58335648  .00071475  00000+0  28608-2 0  9999
2 58729  43.0000  45.9461 0001345 248.8877  87.1406 15.24175209  5755
STARLINK-31150          
1 58730U 24005C   24036.31232836  .00220556  00000+0  14198-2 0  9991
2 58730  43.0001  50.0294 0002102 238.2111 121.8554 15.74743356  5585
STARLINK-31204          
1 58731U 24005D   24037.58335648  .00079195  00000+0  31660-2 0  9991
2 58731  43.0001  45.8707 0001223 249.5938 117.7339 15.24168316  5747
STARLINK-31180          
1 58732U 24005E   24037.58335648  .00084920  00000+0  33900-2 0  9993
2 58732  43.0001  45.8328 0001554 274.6744 108.2728 15.24182982  5751
STARLINK-31164          
1 58733U 24005F   24037.58335648  .00083428  00000+0  33299-2 0  9997
2 58733  43.0002  45.7950 0001783 270.7834 127.8379 15.24196871  5755
STARLINK-31152          
1 58734U 24005G   24037.58335648  .00093022  00000+0  37087-2 0  9998
2 58734  43.0004  45.7575 0001103 268.9105 145.3628 15.24180033  5741
STARLINK-31157          
1 58735U 24005H   24035.08366784 -.00741055  00000+0 -24734-1 0  9999
2 58735  43.0010  59.8034 0006371 205.6442 154.4097 15.32949710  5362
STARLINK-31076          
1 58736U 24005J   24036.91667824  .00052412  00000+0  21039-2 0  9998
2 58736  43.0006  49.4257 0002080 266.3362 116.7204 15.24207280  5796
STARLINK-31101          
1 58737U 24005K   24037.58335648  .00079484  00000+0  31714-2 0  9998
2 58737  43.0007  45.6063 0001710 300.2224 176.6038 15.24231539  5755
STARLINK-31108          
1 58738U 24005L   24034.55856540 -.00675525  00000+0 -20419-1 0  9991
2 58738  43.0003  62.7426 0002413  17.8334 342.2605 15.35849213  5273
STARLINK-31042          
1 58739U 24005M   24037.25001157 -.00071844  00000+0 -29041-2 0  9993
2 58739  43.0005  47.4427 0001635 275.5066 185.7180 15.24260864  5698
STARLINK-31159          
1 58740U 24005N   24037.58335648  .00017810  00000+0  72439-3 0  9997
2 58740  43.0006  45.5305 0001033 258.0199 250.0483 15.24236561  5846
STARLINK-31148          
1 58741U 24005P   24037.42248624  .00014854  00000+0  60532-3 0  9994
2 58741  43.0002  47.2644 0001401 260.7240  99.3452 15.24279744  5710
STARLINK-31151          
1 58742U 24005Q   24037.41962494  .00001469  00000+0  69124-4 0  9997
2 58742  43.0004  47.2410 0000826 302.8606  57.2165 15.24268566  5813
STARLINK-31156          
1 58743U 24005R   24037.58335648  .00062693  00000+0  25123-2 0  9996
2 58743  43.0010  46.2841 0001336 274.9611 280.1617 15.24191657  5781
STARLINK-31167          
1 58744U 24005S   24037.58335648  .00051406  00000+0  20653-2 0  9990
2 58744  43.0010  46.2459 0001437 266.8610 303.9296 15.24186516  5783
STARLINK-31176          
1 58745U 24005T   24037.58335648  .00029343  00000+0  11861-2 0  9997
2 58745  43.0008  46.2083 0001143 274.8978 311.5376 15.24207134  5744
STARLINK-31181          
1 58746U 24005U   24037.39685005 -.00009531  00000+0 -37357-3 0  9990
2 58746  42.9997  47.0498 0000739 267.4594  92.6172 15.24229757  5769
STARLINK-31183          
1 58747U 24005V   24037.58335648  .00057596  00000+0  23121-2 0  9992
2 58747  43.0007  46.1698 0001238 260.6560 341.5278 15.24168385  5839
STARLINK-31165          
1 58748U 24005W   24037.58335648  .00070280  00000+0  28146-2 0  9990
2 58748  43.0003  46.1318 0000985 251.6373   6.1122 15.24163306  5734
